start=new Date('2022-12-25T00:00:00.000Z').valueOf();
sats=[{"ECCENTRICITY":"0.00019200","OBJECT_TYPE":"PAYLOAD","CLASSIFICATION_TYPE":"U","OBJECT_NAME":"STARLINK-1556","TLE_LINE2":"2 46033  53.0537 344.5319 0001920  79.9297 280.1908 15.06412438132339","REF_FRAME":"TEME","ARG_OF_PERICENTER":"79.9297","OBJECT_ID":"2020-055G","EPHEMERIS_TYPE":"0","ELEMENT_SET_NO":"999","SITE":"AFETR","GP_ID":"221344895","MEAN_MOTION":"15.06412438","TLE_LINE1":"1 46033U 20055G   22358.44798012  .00006474  00000-0  45294-3 0  9991","PERIOD":"95.591","MEAN_ELEMENT_THEORY":"SGP4","LAUNCH_DATE":"2020-08-07","NORAD_CAT_ID":"46033","MEAN_MOTION_DDOT":"0.0000000000000","TIME_SYSTEM":"UTC","RA_OF_ASC_NODE":"344.5319","SEMIMAJOR_AXIS":"6925.310","CENTER_NAME":"EARTH","MEAN_ANOMALY":"280.1908","APOAPSIS":"548.505","RCS_SIZE":"LARGE","MEAN_MOTION_DOT":"0.00006474","COUNTRY_CODE":"US","FILE":"3721189","PERIAPSIS":"545.846","DECAY_DATE":null,"BSTAR":"0.00045294000000","INCLINATION":"53.0537","EPOCH":"2022-12-24T10:45:05.482368","REV_AT_EPOCH":"13233"},{"PERIAPSIS":"545.904","BSTAR":"0.00006569900000","DECAY_DATE":null,"COUNTRY_CODE":"US","FILE":"3721189","MEAN_MOTION_DOT":"0.00000697","REV_AT_EPOCH":"13232","INCLINATION":"53.0587","EPOCH":"2022-12-24T09:14:50.614656","RCS_SIZE":"LARGE","APOAPSIS":"548.476","MEAN_ANOMALY":"307.3200","SEMIMAJOR_AXIS":"6925.325","CENTER_NAME":"EARTH","RA_OF_ASC_NODE":"344.8018","MEAN_MOTION_DDOT":"0.0000000000000","TIME_SYSTEM":"UTC","TLE_LINE1":"1 46034U 20055H   22358.38530804  .00000697  00000-0  65699-4 0  9991","MEAN_MOTION":"15.06407622","LAUNCH_DATE":"2020-08-07","NORAD_CAT_ID":"46034","MEAN_ELEMENT_THEORY":"SGP4","PERIOD":"95.592","TLE_LINE2":"2 46034  53.0587 344.8018 0001857  52.7958 307.3200 15.06407622132321","OBJECT_NAME":"STARLINK-1557","REF_FRAME":"TEME","ARG_OF_PERICENTER":"52.7958","CLASSIFICATION_TYPE":"U","OBJECT_TYPE":"PAYLOAD","ECCENTRICITY":"0.00018570","GP_ID":"221345648","ELEMENT_SET_NO":"999","SITE":"AFETR","OBJECT_ID":"2020-055H","EPHEMERIS_TYPE":"0"},{"MEAN_MOTION_DDOT":"0.0000000000000","TIME_SYSTEM":"UTC","RA_OF_ASC_NODE":"343.5756","CENTER_NAME":"EARTH","SEMIMAJOR_AXIS":"6925.367","MEAN_ANOMALY":"315.4189","APOAPSIS":"548.690","RCS_SIZE":"LARGE","MEAN_MOTION_DOT":"-0.00001355","COUNTRY_CODE":"US","FILE":"3721442","PERIAPSIS":"545.774","DECAY_DATE":null,"BSTAR":"-0.00007210300000","INCLINATION":"53.0564","EPOCH":"2022-12-24T15:47:37.373280","REV_AT_EPOCH":"13239","ECCENTRICITY":"0.00021050","OBJECT_TYPE":"PAYLOAD","CLASSIFICATION_TYPE":"U","TLE_LINE2":"2 46035  53.0564 343.5756 0002105  44.6969 315.4189 15.06393927132396","OBJECT_NAME":"STARLINK-1558","ARG_OF_PERICENTER":"44.6969","REF_FRAME":"TEME","OBJECT_ID":"2020-055J","EPHEMERIS_TYPE":"0","ELEMENT_SET_NO":"999","SITE":"AFETR","GP_ID":"221377658","MEAN_MOTION":"15.06393927","TLE_LINE1":"1 46035U 20055J   22358.65807145 -.00001355  00000-0 -72103-4 0  9999","PERIOD":"95.593","MEAN_ELEMENT_THEORY":"SGP4","LAUNCH_DATE":"2020-08-07","NORAD_CAT_ID":"46035"},{"TIME_SYSTEM":"UTC","MEAN_MOTION_DDOT":"0.0000000000000","RA_OF_ASC_NODE":"344.8530","CENTER_NAME":"EARTH","SEMIMAJOR_AXIS":"6925.316","MEAN_ANOMALY":"310.8027","APOAPSIS":"548.568","RCS_SIZE":"LARGE","MEAN_MOTION_DOT":"0.00001208","FILE":"3721189","COUNTRY_CODE":"US","BSTAR":"0.00009999700000","DECAY_DATE":null,"PERIAPSIS":"545.794","EPOCH":"2022-12-24T09:04:13.895040","INCLINATION":"53.0530","REV_AT_EPOCH":"13235","ECCENTRICITY":"0.00020030","OBJECT_TYPE":"PAYLOAD","CLASSIFICATION_TYPE":"U","REF_FRAME":"TEME","ARG_OF_PERICENTER":"49.3136","OBJECT_NAME":"STARLINK-1560","TLE_LINE2":"2 46036  53.0530 344.8530 0002003  49.3136 310.8027 15.06410616132350","OBJECT_ID":"2020-055K","EPHEMERIS_TYPE":"0","SITE":"AFETR","ELEMENT_SET_NO":"999","GP_ID":"221344153","MEAN_MOTION":"15.06410616","TLE_LINE1":"1 46036U 20055K   22358.37793860  .00001208  00000-0  99997-4 0  9992","PERIOD":"95.591","MEAN_ELEMENT_THEORY":"SGP4","NORAD_CAT_ID":"46036","LAUNCH_DATE":"2020-08-07"},{"CENTER_NAME":"EARTH","SEMIMAJOR_AXIS":"6925.339","MEAN_ANOMALY":"314.5406","APOAPSIS":"548.424","RCS_SIZE":"LARGE","MEAN_MOTION_DDOT":"0.0000000000000","TIME_SYSTEM":"UTC","RA_OF_ASC_NODE":"344.5661","REV_AT_EPOCH":"13235","INCLINATION":"53.0548","EPOCH":"2022-12-24T10:34:27.783840","PERIAPSIS":"545.984","DECAY_DATE":null,"BSTAR":"0.00011385000000","MEAN_MOTION_DOT":"0.00001415","COUNTRY_CODE":"US","FILE":"3721189","GP_ID":"221344397","OBJECT_ID":"2020-055L","EPHEMERIS_TYPE":"0","ELEMENT_SET_NO":"999","SITE":"AFETR","CLASSIFICATION_TYPE":"U","TLE_LINE2":"2 46037  53.0548 344.5661 0001762  45.5727 314.5406 15.06403138132350","OBJECT_NAME":"STARLINK-1565","ARG_OF_PERICENTER":"45.5727","REF_FRAME":"TEME","ECCENTRICITY":"0.00017620","OBJECT_TYPE":"PAYLOAD","NORAD_CAT_ID":"46037","LAUNCH_DATE":"2020-08-07","PERIOD":"95.592","MEAN_ELEMENT_THEORY":"SGP4","TLE_LINE1":"1 46037U 20055L   22358.44059935  .00001415  00000-0  11385-3 0  9993","MEAN_MOTION":"15.06403138"},{"REV_AT_EPOCH":"13238","INCLINATION":"53.0560","EPOCH":"2022-12-24T15:42:19.305504","PERIAPSIS":"545.787","DECAY_DATE":null,"BSTAR":"0.00025880000000","COUNTRY_CODE":"US","FILE":"3721442","MEAN_MOTION_DOT":"0.00003576","APOAPSIS":"548.583","RCS_SIZE":"LARGE","SEMIMAJOR_AXIS":"6925.320","CENTER_NAME":"EARTH","MEAN_ANOMALY":"315.7181","RA_OF_ASC_NODE":"343.5911","MEAN_MOTION_DDOT":"0.0000000000000","TIME_SYSTEM":"UTC","NORAD_CAT_ID":"46038","LAUNCH_DATE":"2020-08-07","MEAN_ELEMENT_THEORY":"SGP4","PERIOD":"95.592","TLE_LINE1":"1 46038U 20055M   22358.65439011  .00003576  00000-0  25880-3 0  9999","MEAN_MOTION":"15.06409229","GP_ID":"221377408","SITE":"AFETR","ELEMENT_SET_NO":"999","OBJECT_ID":"2020-055M","EPHEMERIS_TYPE":"0","TLE_LINE2":"2 46038  53.0560 343.5911 0002019  44.3969 315.7181 15.06409229132386","OBJECT_NAME":"STARLINK-1567","ARG_OF_PERICENTER":"44.3969","REF_FRAME":"TEME","CLASSIFICATION_TYPE":"U","OBJECT_TYPE":"PAYLOAD","ECCENTRICITY":"0.00020190"},{"EPHEMERIS_TYPE":"0","OBJECT_ID":"2020-055N","ELEMENT_SET_NO":"999","SITE":"AFETR","GP_ID":"221377159","ECCENTRICITY":"0.00022300","OBJECT_TYPE":"PAYLOAD","CLASSIFICATION_TYPE":"U","ARG_OF_PERICENTER":"46.8765","REF_FRAME":"TEME","TLE_LINE2":"2 46039  53.0561 343.5567 0002230  46.8765 313.2410 15.06399228132386","OBJECT_NAME":"STARLINK-1569","PERIOD":"95.592","MEAN_ELEMENT_THEORY":"SGP4","NORAD_CAT_ID":"46039","LAUNCH_DATE":"2020-08-07","MEAN_MOTION":"15.06399228","TLE_LINE1":"1 46039U 20055N   22358.66176288  .00001782  00000-0  13851-3 0  9997","TIME_SYSTEM":"UTC","MEAN_MOTION_DDOT":"0.0000000000000","RA_OF_ASC_NODE":"343.5567","CENTER_NAME":"EARTH","SEMIMAJOR_AXIS":"6925.351","MEAN_ANOMALY":"313.2410","APOAPSIS":"548.760","RCS_SIZE":"LARGE","EPOCH":"2022-12-24T15:52:56.312832","INCLINATION":"53.0561","REV_AT_EPOCH":"13238","MEAN_MOTION_DOT":"0.00001782","FILE":"3721442","COUNTRY_CODE":"US","DECAY_DATE":null,"BSTAR":"0.00013851000000","PERIAPSIS":"545.672"},{"REV_AT_EPOCH":"13235","EPOCH":"2022-12-24T16:35:24.225504","INCLINATION":"53.0573","BSTAR":"0.00042430000000","DECAY_DATE":null,"PERIAPSIS":"546.079","FILE":"3721442","COUNTRY_CODE":"US","MEAN_MOTION_DOT":"0.00006046","RCS_SIZE":"LARGE","APOAPSIS":"548.270","CENTER_NAME":"EARTH","SEMIMAJOR_AXIS":"6925.309","MEAN_ANOMALY":"265.9226","RA_OF_ASC_NODE":"343.4290","TIME_SYSTEM":"UTC","MEAN_MOTION_DDOT":"0.0000000000000","LAUNCH_DATE":"2020-08-07","NORAD_CAT_ID":"46040","MEAN_ELEMENT_THEORY":"SGP4","PERIOD":"95.591","TLE_LINE1":"1 46040U 20055P   22358.69125261  .00006046  00000-0  42430-3 0  9990","MEAN_MOTION":"15.06412842","GP_ID":"221375908","SITE":"AFETR","ELEMENT_SET_NO":"999","EPHEMERIS_TYPE":"0","OBJECT_ID":"2020-055P","ARG_OF_PERICENTER":"94.1944","REF_FRAME":"TEME","TLE_LINE2":"2 46040  53.0573 343.4290 0001582  94.1944 265.9226 15.06412842132350","OBJECT_NAME":"STARLINK-1576","CLASSIFICATION_TYPE":"U","OBJECT_TYPE":"PAYLOAD","ECCENTRICITY":"0.00015820"},{"APOAPSIS":"548.751","RCS_SIZE":"LARGE","CENTER_NAME":"EARTH","SEMIMAJOR_AXIS":"6925.351","MEAN_ANOMALY":"319.4008","RA_OF_ASC_NODE":"343.4655","MEAN_MOTION_DDOT":"0.0000000000000","TIME_SYSTEM":"UTC","REV_AT_EPOCH":"13236","INCLINATION":"53.0558","EPOCH":"2022-12-24T16:51:20.127456","PERIAPSIS":"545.680","DECAY_DATE":null,"BSTAR":"0.00007697600000","COUNTRY_CODE":"US","FILE":"3721442","MEAN_MOTION_DOT":"0.00000865","GP_ID":"221376158","ELEMENT_SET_NO":"999","SITE":"AFETR","EPHEMERIS_TYPE":"0","OBJECT_ID":"2020-055Q","TLE_LINE2":"2 46041  53.0558 343.4655 0002217  40.7147 319.4008 15.06399265132364","OBJECT_NAME":"STARLINK-1580","REF_FRAME":"TEME","ARG_OF_PERICENTER":"40.7147","CLASSIFICATION_TYPE":"U","OBJECT_TYPE":"PAYLOAD","ECCENTRICITY":"0.00022170","LAUNCH_DATE":"2020-08-07","NORAD_CAT_ID":"46041","MEAN_ELEMENT_THEORY":"SGP4","PERIOD":"95.592","TLE_LINE1":"1 46041U 20055Q   22358.70231629  .00000865  00000-0  76976-4 0  9995","MEAN_MOTION":"15.06399265"},{"EPHEMERIS_TYPE":"0","OBJECT_ID":"2020-055R","SITE":"AFETR","ELEMENT_SET_NO":"999","GP_ID":"221376909","ECCENTRICITY":"0.00018790","OBJECT_TYPE":"PAYLOAD","CLASSIFICATION_TYPE":"U","TLE_LINE2":"2 46042  53.0561 343.5098 0001879  53.3114 306.8047 15.06398235132356","OBJECT_NAME":"STARLINK-1581","ARG_OF_PERICENTER":"53.3114","REF_FRAME":"TEME","PERIOD":"95.592","MEAN_ELEMENT_THEORY":"SGP4","NORAD_CAT_ID":"46042","LAUNCH_DATE":"2020-08-07","MEAN_MOTION":"15.06398235","TLE_LINE1":"1 46042U 20055R   22358.67650300  .00001995  00000-0  15280-3 0  9998","MEAN_MOTION_DDOT":"0.0000000000000","TIME_SYSTEM":"UTC","RA_OF_ASC_NODE":"343.5098","SEMIMAJOR_AXIS":"6925.354","CENTER_NAME":"EARTH","MEAN_ANOMALY":"306.8047","RCS_SIZE":"LARGE","APOAPSIS":"548.520","INCLINATION":"53.0561","EPOCH":"2022-12-24T16:14:09.859200","REV_AT_EPOCH":"13235","MEAN_MOTION_DOT":"0.00001995","COUNTRY_CODE":"US","FILE":"3721442","PERIAPSIS":"545.918","DECAY_DATE":null,"BSTAR":"0.00015280000000"}];
